[{"OBJECT_NAME":"STARLINK-34654","OBJECT_ID":"2025-152S","EPOCH":"2026-03-09T20:00:42.388416","MEAN_MOTION":15.05650765,"ECCENTRICITY":0.00018125,"INCLINATION":97.6015,"RA_OF_ASC_NODE":285.7132,"ARG_OF_PERICENTER":90.5043,"MEAN_ANOMALY":269.6392,"EPHEMERIS_TYPE":0,"CLASSIFICATION_TYPE":"U","NORAD_CAT_ID":64858,"ELEMENT_SET_NO":999,"REV_AT_EPOCH":3544,"BSTAR":0.00020226638,"MEAN_MOTION_DOT":2.859e-5,"MEAN_MOTION_DDOT":0},{"OBJECT_NAME":"OBJECT D","OBJECT_ID":"2025-292D","EPOCH":"2026-03-09T21:45:32.907168","MEAN_MOTION":15.05344615,"ECCENTRICITY":0.00138692,"INCLINATION":97.6365,"RA_OF_ASC_NODE":145.5948,"ARG_OF_PERICENTER":343.7291,"MEAN_ANOMALY":16.3488,"EPHEMERIS_TYPE":0,"CLASSIFICATION_TYPE":"U","NORAD_CAT_ID":66996,"ELEMENT_SET_NO":999,"REV_AT_EPOCH":1350,"BSTAR":0.00030674408,"MEAN_MOTION_DOT":4.34e-5,"MEAN_MOTION_DDOT":0}]
